0 SBS 5
1 19484U 88081B   13283.22100205 -.00000283  00000-0  10000-3 0  7244
2 19484 011.6532 042.8805 0005055 171.4271 188.5864 00.99792139 83168
0 SBS 5
1 19484U 88081B   13288.23121206 -.00000265  00000-0  10000-3 0  7255
2 19484 011.6616 042.8211 0004901 169.1434 190.8594 00.99790208 83213
0 SBS 5
1 19484U 88081B   13289.23325667 -.00000258  00000-0  10000-3 0  7266
2 19484 011.6632 042.8090 0005030 166.3124 193.6827 00.99789789 83228
0 SBS 5
1 19484U 88081B   13293.24146376 -.00000225  00000-0  10000-3 0  7286
2 19484 011.6701 042.7612 0005393 169.3088 190.6609 00.99788436 83265
0 SBS 5
1 19484U 88081B   13293.24146775 -.00000225  00000-0  10000-3 0  7278
2 19484 011.6697 042.7616 0005188 167.5011 192.4736 00.99788463 83262
0 SBS 5
1 19484U 88081B   13295.24563734 -.00000205  00000-0  10000-3 0  7298
2 19484 011.6733 042.7376 0005445 167.9831 191.9900 00.99787766 83280
